<!doctype html>

<html>

<head>

<title>TLE for NORAD Catalog Number 44253</title>

</head>

<body>

<pre>
STARLINK-39             
1 44253U 19029U   19302.17260227  .00001651  00000-0  13281-3 0  9992
2 44253  53.0053 182.8451 0002220  84.5267 275.5974 15.05476793 23958

</pre>
	
</body>

</html>
